{"type":"FeatureCollection","features":[{"type":"Feature","geometry":{"type":"Point","coordinates":[-5.083,56.167]},"properties":{"name":"A-Chruach"}},{"type":"Feature","geometry":{"type":"Point","coordinates":[-2.0,54.0]},"properties":{"name":"AG-REC05L"}},{"type":"Feature","geometry":{"type":"Point","coordinates":[-4.162,55.393]},"properties":{"name":"Afton"}},{"type":"Feature","geometry":{"type":"Point","coordinates":[-2.466,55.907]},"properties":{"name":"Aikengall 2"}},{"type":"Feature","geometry":{"type":"Point","coordinates":[-2.466,55.907]},"properties":{"name":"Aikengall 3"}},{"type":"Feature","geometry":{"type":"Point","coordinates":[-3.744,55.613]},"properties":{"name":"Andershaw"}},{"type":"Feature","geometry":{"type":"Point","coordinates":[-4.602,55.354]},"properties":{"name":"Arecleoch"}},{"type":"Feature","geometry":{"type":"Point","coordinates":[-4.483,55.3]},"properties":{"name":"Assel Valley"}},{"type":"Feature","geometry":{"type":"Point","coordinates":[-3.95,55.63]},"properties":{"name":"Auchrobert"}},{"type":"Feature","geometry":{"type":"Point","coordinates":[-4.683,57.933]},"properties":{"name":"Bad A Cheo"}},{"type":"Feature","geometry":{"type":"Point","coordinates":[-3.283,57.6]},"properties":{"name":"Baillie"}},{"type":"Feature","geometry":{"type":"Point","coordinates":[-3.083,53.983]},"properties":{"name":"Barrow"}},{"type":"Feature","geometry":{"type":"Point","coordinates":[-2.889,58.109]},"properties":{"name":"Beatrice 1"}},{"type":"Feature","geometry":{"type":"Point","coordinates":[-2.889,58.109]},"properties":{"name":"Beatrice 2"}},{"type":"Feature","geometry":{"type":"Point","coordinates":[-2.889,58.109]},"properties":{"name":"Beatrice 3"}},{"type":"Feature","geometry":{"type":"Point","coordinates":[-2.889,58.109]},"properties":{"name":"Beatrice 4"}},{"type":"Feature","geometry":{"type":"Point","coordinates":[-4.433,57.7]},"properties":{"name":"Beinn Tharsuinn"}},{"type":"Feature","geometry":{"type":"Point","coordinates":[-5.5,55.833]},"properties":{"name":"Beinn an Tuirc Ext"}},{"type":"Feature","geometry":{"type":"Point","coordinates":[-5.5,55.833]},"properties":{"name":"Beinn an Tuirc Phase 3"}},{"type":"Feature","geometry":{"type":"Point","coordinates":[-4.933,56.883]},"properties":{"name":"Beinneun"}},{"type":"Feature","geometry":{"type":"Point","coordinates":[-4.283,55.25]},"properties":{"name":"Benbrack"}},{"type":"Feature","geometry":{"type":"Point","coordinates":[-3.2,57.483]},"properties":{"name":"Berry Burn"}},{"type":"Feature","geometry":{"type":"Point","coordinates":[-4.85,57.25]},"properties":{"name":"Bhlaraidh"}},{"type":"Feature","geometry":{"type":"Point","coordinates":[-3.693,55.77]},"properties":{"name":"Black Law"}},{"type":"Feature","geometry":{"type":"Point","coordinates":[-3.693,55.77]},"properties":{"name":"Black Law Ext 1"}},{"type":"Feature","geometry":{"type":"Point","coordinates":[-4.15,55.25]},"properties":{"name":"Blackcraig"}},{"type":"Feature","geometry":{"type":"Point","coordinates":[-3.783,55.067]},"properties":{"name":"Blary Hill"}},{"type":"Feature","geometry":{"type":"Point","coordinates":[-3.96,56.19]},"properties":{"name":"Braes of Doune"}},{"type":"Feature","geometry":{"type":"Point","coordinates":[-4.1,55.2]},"properties":{"name":"Brockloch Rig"}},{"type":"Feature","geometry":{"type":"Point","coordinates":[-2.2,53.2]},"properties":{"name":"Broken Cross"}},{"type":"Feature","geometry":{"type":"Point","coordinates":[-3.19,53.49]},"properties":{"name":"Burbo Bank"}},{"type":"Feature","geometry":{"type":"Point","coordinates":[-3.3,58.55]},"properties":{"name":"Burn of Whilk"}},{"type":"Feature","geometry":{"type":"Point","coordinates":[-3.2,57.533]},"properties":{"name":"Cairn Uish 1 (Rothes 1)"}},{"type":"Feature","geometry":{"type":"Point","coordinates":[-3.2,57.533]},"properties":{"name":"Cairn Uish 2 (Rothes 2)"}},{"type":"Feature","geometry":{"type":"Point","coordinates":[-3.4,58.3]},"properties":{"name":"Camster"}},{"type":"Feature","geometry":{"type":"Point","coordinates":[-5.25,56.25]},"properties":{"name":"Carraig Gheal"}},{"type":"Feature","geometry":{"type":"Point","coordinates":[-3.55,58.483]},"properties":{"name":"Causeymire"}},{"type":"Feature","geometry":{"type":"Point","coordinates":[-5.417,55.917]},"properties":{"name":"Clachan Flats"}},{"type":"Feature","geometry":{"type":"Point","coordinates":[-2.917,57.333]},"properties":{"name":"Clashindarroch"}},{"type":"Feature","geometry":{"type":"Point","coordinates":[-3.75,55.55]},"properties":{"name":"Clyde Central"}},{"type":"Feature","geometry":{"type":"Point","coordinates":[-3.75,55.55]},"properties":{"name":"Clyde North"}},{"type":"Feature","geometry":{"type":"Point","coordinates":[-3.75,55.55]},"properties":{"name":"Clyde South"}},{"type":"Feature","geometry":{"type":"Point","coordinates":[-4.333,57.2]},"properties":{"name":"Corriegarth"}},{"type":"Feature","geometry":{"type":"Point","coordinates":[-4.583,57.55]},"properties":{"name":"Corriemoillie"}},{"type":"Feature","geometry":{"type":"Point","coordinates":[-2.75,57.35]},"properties":{"name":"Cour"}},{"type":"Feature","geometry":{"type":"Point","coordinates":[-3.5,55.5]},"properties":{"name":"Craig II"}},{"type":"Feature","geometry":{"type":"Point","coordinates":[-4.583,57.783]},"properties":{"name":"Creag Riabhach"}},{"type":"Feature","geometry":{"type":"Point","coordinates":[-3.433,55.083]},"properties":{"name":"Crossdykes"}},{"type":"Feature","geometry":{"type":"Point","coordinates":[-3.433,55.083]},"properties":{"name":"Crossdykes 2"}},{"type":"Feature","geometry":{"type":"Point","coordinates":[-2.5,55.9]},"properties":{"name":"Crystal Rig 2"}},{"type":"Feature","geometry":{"type":"Point","coordinates":[-2.5,55.9]},"properties":{"name":"Crystal Rig 3"}},{"type":"Feature","geometry":{"type":"Point","coordinates":[-3.833,55.683]},"properties":{"name":"Dalquhandy"}},{"type":"Feature","geometry":{"type":"Point","coordinates":[-3.65,55.133]},"properties":{"name":"Dalswinton"}},{"type":"Feature","geometry":{"type":"Point","coordinates":[-0.3,52.7]},"properties":{"name":"Deeping St Nicholas"}},{"type":"Feature","geometry":{"type":"Point","coordinates":[-4.5,55.317]},"properties":{"name":"Dersalloch"}},{"type":"Feature","geometry":{"type":"Point","coordinates":[-3.283,57.333]},"properties":{"name":"Dorenell 1"}},{"type":"Feature","geometry":{"type":"Point","coordinates":[-3.283,57.333]},"properties":{"name":"Dorenell 2"}},{"type":"Feature","geometry":{"type":"Point","coordinates":[-3.833,55.55]},"properties":{"name":"Douglas West"}},{"type":"Feature","geometry":{"type":"Point","coordinates":[-3.5,55.8]},"properties":{"name":"Dun Law"}},{"type":"Feature","geometry":{"type":"Point","coordinates":[-4.167,57.167]},"properties":{"name":"Dunmaglass"}},{"type":"Feature","geometry":{"type":"Point","coordinates":[1.9,52.9]},"properties":{"name":"East Anglia One Part 1"}},{"type":"Feature","geometry":{"type":"Point","coordinates":[1.9,52.9]},"properties":{"name":"East Anglia One Part 2"}},{"type":"Feature","geometry":{"type":"Point","coordinates":[-6.35,57.45]},"properties":{"name":"Edinbane"}},{"type":"Feature","geometry":{"type":"Point","coordinates":[-3.9,55.25]},"properties":{"name":"Ewe Hill"}},{"type":"Feature","geometry":{"type":"Point","coordinates":[-2.533,55.85]},"properties":{"name":"Fallago Rig"}},{"type":"Feature","geometry":{"type":"Point","coordinates":[-4.0,57.333]},"properties":{"name":"Farr 1"}},{"type":"Feature","geometry":{"type":"Point","coordinates":[-4.0,57.333]},"properties":{"name":"Farr 2"}},{"type":"Feature","geometry":{"type":"Point","coordinates":[-3.75,55.517]},"properties":{"name":"Galawhistle"}},{"type":"Feature","geometry":{"type":"Point","coordinates":[2.1,52.0]},"properties":{"name":"Galloper 1"}},{"type":"Feature","geometry":{"type":"Point","coordinates":[-4.833,55.2]},"properties":{"name":"Glen App"}},{"type":"Feature","geometry":{"type":"Point","coordinates":[-3.917,57.25]},"properties":{"name":"Glen Kyllachy"}},{"type":"Feature","geometry":{"type":"Point","coordinates":[-2.583,57.333]},"properties":{"name":"Glens of Foudland"}},{"type":"Feature","geometry":{"type":"Point","coordinates":[-3.9,57.967]},"properties":{"name":"Gordonbush"}},{"type":"Feature","geometry":{"type":"Point","coordinates":[-2.717,57.567]},"properties":{"name":"Gordonstown Hill"}},{"type":"Feature","geometry":{"type":"Point","coordinates":[1.95,51.98]},"properties":{"name":"Greater Gabbard 1"}},{"type":"Feature","geometry":{"type":"Point","coordinates":[1.95,51.98]},"properties":{"name":"Greater Gabbard 2"}},{"type":"Feature","geometry":{"type":"Point","coordinates":[1.95,51.98]},"properties":{"name":"Greater Gabbard 3"}},{"type":"Feature","geometry":{"type":"Point","coordinates":[-3.917,55.917]},"properties":{"name":"Greengairs East"}},{"type":"Feature","geometry":{"type":"Point","coordinates":[-3.417,57.317]},"properties":{"name":"Griffin 1"}},{"type":"Feature","geometry":{"type":"Point","coordinates":[-3.417,57.317]},"properties":{"name":"Griffin 2"}},{"type":"Feature","geometry":{"type":"Point","coordinates":[1.2,51.8]},"properties":{"name":"Gunfleet Sands 1"}},{"type":"Feature","geometry":{"type":"Point","coordinates":[1.2,51.8]},"properties":{"name":"Gunfleet Sands 2"}},{"type":"Feature","geometry":{"type":"Point","coordinates":[-3.583,53.433]},"properties":{"name":"Gwynt y Mor 15"}},{"type":"Feature","geometry":{"type":"Point","coordinates":[-3.583,53.433]},"properties":{"name":"Gwynt y Mor 17"}},{"type":"Feature","geometry":{"type":"Point","coordinates":[-3.583,53.433]},"properties":{"name":"Gwynt y Mor 26"}},{"type":"Feature","geometry":{"type":"Point","coordinates":[-3.583,53.433]},"properties":{"name":"Gwynt y Mor 28"}},{"type":"Feature","geometry":{"type":"Point","coordinates":[-4.383,55.333]},"properties":{"name":"Hadyard Hill"}},{"type":"Feature","geometry":{"type":"Point","coordinates":[-3.85,55.65]},"properties":{"name":"Hagshaw Hill - Repower"}},{"type":"Feature","geometry":{"type":"Point","coordinates":[-3.85,55.65]},"properties":{"name":"Hagshaw Hill Repowering"}},{"type":"Feature","geometry":{"type":"Point","coordinates":[-3.617,58.417]},"properties":{"name":"Halsary Forest"}},{"type":"Feature","geometry":{"type":"Point","coordinates":[-3.817,55.583]},"properties":{"name":"Hare Hill Ext"}},{"type":"Feature","geometry":{"type":"Point","coordinates":[-3.583,55.417]},"properties":{"name":"Harestanes"}},{"type":"Feature","geometry":{"type":"Point","coordinates":[-2.817,57.283]},"properties":{"name":"Hill of Towie"}},{"type":"Feature","geometry":{"type":"Point","coordinates":[1.8,53.9]},"properties":{"name":"Hornsea A1"}},{"type":"Feature","geometry":{"type":"Point","coordinates":[1.8,53.9]},"properties":{"name":"Hornsea A2"}},{"type":"Feature","geometry":{"type":"Point","coordinates":[1.8,53.9]},"properties":{"name":"Hornsea A3"}},{"type":"Feature","geometry":{"type":"Point","coordinates":[1.8,53.9]},"properties":{"name":"Hornsea B1"}},{"type":"Feature","geometry":{"type":"Point","coordinates":[1.8,53.9]},"properties":{"name":"Hornsea B2"}},{"type":"Feature","geometry":{"type":"Point","coordinates":[1.8,53.9]},"properties":{"name":"Hornsea B3"}},{"type":"Feature","geometry":{"type":"Point","coordinates":[-3.9,55.5]},"properties":{"name":"Kennoxhead Phase 1"}},{"type":"Feature","geometry":{"type":"Point","coordinates":[-3.85,58.033]},"properties":{"name":"Kilbraur"}},{"type":"Feature","geometry":{"type":"Point","coordinates":[-4.483,55.183]},"properties":{"name":"Kilgallioch (Arecleoch Phase 2)"}},{"type":"Feature","geometry":{"type":"Point","coordinates":[-3.917,55.7]},"properties":{"name":"Kype Muir"}},{"type":"Feature","geometry":{"type":"Point","coordinates":[-3.917,55.7]},"properties":{"name":"Kype Muir Extension"}},{"type":"Feature","geometry":{"type":"Point","coordinates":[-3.667,58.533]},"properties":{"name":"Limekiln"}},{"type":"Feature","geometry":{"type":"Point","coordinates":[-4.8,57.617]},"properties":{"name":"Lochluichart"}},{"type":"Feature","geometry":{"type":"Point","coordinates":[1.5,51.6]},"properties":{"name":"London Array 1"}},{"type":"Feature","geometry":{"type":"Point","coordinates":[1.5,51.6]},"properties":{"name":"London Array 2"}},{"type":"Feature","geometry":{"type":"Point","coordinates":[1.5,51.6]},"properties":{"name":"London Array 3"}},{"type":"Feature","geometry":{"type":"Point","coordinates":[1.5,51.6]},"properties":{"name":"London Array 4"}},{"type":"Feature","geometry":{"type":"Point","coordinates":[-4.333,55.267]},"properties":{"name":"Mark Hill"}},{"type":"Feature","geometry":{"type":"Point","coordinates":[-2.883,57.467]},"properties":{"name":"Mid Hill"}},{"type":"Feature","geometry":{"type":"Point","coordinates":[-3.917,55.733]},"properties":{"name":"Middle Muir"}},{"type":"Feature","geometry":{"type":"Point","coordinates":[-3.55,55.183]},"properties":{"name":"Millennium"}},{"type":"Feature","geometry":{"type":"Point","coordinates":[-4.183,55.2]},"properties":{"name":"Minnygap"}},{"type":"Feature","geometry":{"type":"Point","coordinates":[-4.25,55.283]},"properties":{"name":"Minsca"}},{"type":"Feature","geometry":{"type":"Point","coordinates":[-2.5,58.0]},"properties":{"name":"Moray Firth Eastern 1"}},{"type":"Feature","geometry":{"type":"Point","coordinates":[-2.5,58.0]},"properties":{"name":"Moray Firth Eastern 2"}},{"type":"Feature","geometry":{"type":"Point","coordinates":[-2.5,58.0]},"properties":{"name":"Moray Firth Eastern 3"}},{"type":"Feature","geometry":{"type":"Point","coordinates":[-2.7,58.05]},"properties":{"name":"Moray West 1"}},{"type":"Feature","geometry":{"type":"Point","coordinates":[-2.7,58.05]},"properties":{"name":"Moray West 2"}},{"type":"Feature","geometry":{"type":"Point","coordinates":[-2.7,58.05]},"properties":{"name":"Moray West 3"}},{"type":"Feature","geometry":{"type":"Point","coordinates":[-2.7,58.05]},"properties":{"name":"Moray West 4"}},{"type":"Feature","geometry":{"type":"Point","coordinates":[-4.05,57.3]},"properties":{"name":"Moy"}},{"type":"Feature","geometry":{"type":"Point","coordinates":[-2.3,56.3]},"properties":{"name":"Neart Na Gaoithe 1"}},{"type":"Feature","geometry":{"type":"Point","coordinates":[-2.3,56.3]},"properties":{"name":"Neart Na Gaoithe 2"}},{"type":"Feature","geometry":{"type":"Point","coordinates":[-4.083,55.35]},"properties":{"name":"North Kyle 1"}},{"type":"Feature","geometry":{"type":"Point","coordinates":[-4.083,55.35]},"properties":{"name":"North Kyle 2"}},{"type":"Feature","geometry":{"type":"Point","coordinates":[-3.7,54.1]},"properties":{"name":"Ormonde"}},{"type":"Feature","geometry":{"type":"Point","coordinates":[-3.183,57.567]},"properties":{"name":"Pauls Hill"}},{"type":"Feature","geometry":{"type":"Point","coordinates":[-3.583,51.683]},"properties":{"name":"Pen-y-Cymoedd"}},{"type":"Feature","geometry":{"type":"Point","coordinates":[1.8,53.1]},"properties":{"name":"Race Bank 1"}},{"type":"Feature","geometry":{"type":"Point","coordinates":[1.8,53.1]},"properties":{"name":"Race Bank 2"}},{"type":"Feature","geometry":{"type":"Point","coordinates":[-0.3,50.7]},"properties":{"name":"Rampion 1"}},{"type":"Feature","geometry":{"type":"Point","coordinates":[-0.3,50.7]},"properties":{"name":"Rampion 2"}},{"type":"Feature","geometry":{"type":"Point","coordinates":[-3.5,54.75]},"properties":{"name":"Robin Rigg West"}},{"type":"Feature","geometry":{"type":"Point","coordinates":[-2.783,55.517]},"properties":{"name":"Sandy Knowe"}},{"type":"Feature","geometry":{"type":"Point","coordinates":[-3.917,55.367]},"properties":{"name":"Sanquhar"}},{"type":"Feature","geometry":{"type":"Point","coordinates":[-1.8,56.6]},"properties":{"name":"Seagreen 1"}},{"type":"Feature","geometry":{"type":"Point","coordinates":[-1.8,56.6]},"properties":{"name":"Seagreen 2"}},{"type":"Feature","geometry":{"type":"Point","coordinates":[-1.8,56.6]},"properties":{"name":"Seagreen 3"}},{"type":"Feature","geometry":{"type":"Point","coordinates":[-1.8,56.6]},"properties":{"name":"Seagreen 4"}},{"type":"Feature","geometry":{"type":"Point","coordinates":[-1.8,56.6]},"properties":{"name":"Seagreen 5"}},{"type":"Feature","geometry":{"type":"Point","coordinates":[-1.8,56.6]},"properties":{"name":"Seagreen 6"}},{"type":"Feature","geometry":{"type":"Point","coordinates":[1.15,53.033]},"properties":{"name":"Sheringham Shoal 1"}},{"type":"Feature","geometry":{"type":"Point","coordinates":[1.15,53.033]},"properties":{"name":"Sheringham Shoal 2"}},{"type":"Feature","geometry":{"type":"Point","coordinates":[-4.083,55.333]},"properties":{"name":"South Kyle"}},{"type":"Feature","geometry":{"type":"Point","coordinates":[-4.033,58.55]},"properties":{"name":"Strathy North"}},{"type":"Feature","geometry":{"type":"Point","coordinates":[-4.65,57.083]},"properties":{"name":"Stronelairg 1"}},{"type":"Feature","geometry":{"type":"Point","coordinates":[-4.65,57.083]},"properties":{"name":"Stronelairg 2"}},{"type":"Feature","geometry":{"type":"Point","coordinates":[-4.65,57.083]},"properties":{"name":"Stronelairg 3"}},{"type":"Feature","geometry":{"type":"Point","coordinates":[1.633,51.45]},"properties":{"name":"Thanet 1"}},{"type":"Feature","geometry":{"type":"Point","coordinates":[1.633,51.45]},"properties":{"name":"Thanet 2"}},{"type":"Feature","geometry":{"type":"Point","coordinates":[-3.333,55.767]},"properties":{"name":"Toddleburn"}},{"type":"Feature","geometry":{"type":"Point","coordinates":[-3.983,57.417]},"properties":{"name":"Tom Nan Clach"}},{"type":"Feature","geometry":{"type":"Point","coordinates":[-4.083,57.217]},"properties":{"name":"Tralorg"}},{"type":"Feature","geometry":{"type":"Point","coordinates":[1.1,53.5]},"properties":{"name":"Triton Knoll East"}},{"type":"Feature","geometry":{"type":"Point","coordinates":[1.1,53.5]},"properties":{"name":"Triton Knoll West"}},{"type":"Feature","geometry":{"type":"Point","coordinates":[-2.7,57.083]},"properties":{"name":"Tullo"}},{"type":"Feature","geometry":{"type":"Point","coordinates":[-2.7,57.083]},"properties":{"name":"Tullo Ext"}},{"type":"Feature","geometry":{"type":"Point","coordinates":[-3.7,56.35]},"properties":{"name":"Tullymurdoch"}},{"type":"Feature","geometry":{"type":"Point","coordinates":[-3.483,55.15]},"properties":{"name":"Twentyshilling Hill"}},{"type":"Feature","geometry":{"type":"Point","coordinates":[-1.2,60.0]},"properties":{"name":"Viking 1"}},{"type":"Feature","geometry":{"type":"Point","coordinates":[-1.2,60.0]},"properties":{"name":"Viking 2"}},{"type":"Feature","geometry":{"type":"Point","coordinates":[-1.2,60.0]},"properties":{"name":"Viking 3"}},{"type":"Feature","geometry":{"type":"Point","coordinates":[-1.2,60.0]},"properties":{"name":"Viking 4"}},{"type":"Feature","geometry":{"type":"Point","coordinates":[-3.55,54.05]},"properties":{"name":"Walney 1"}},{"type":"Feature","geometry":{"type":"Point","coordinates":[-3.55,54.05]},"properties":{"name":"Walney 2"}},{"type":"Feature","geometry":{"type":"Point","coordinates":[-3.55,54.05]},"properties":{"name":"Walney 3"}},{"type":"Feature","geometry":{"type":"Point","coordinates":[-3.55,54.05]},"properties":{"name":"Walney 4"}},{"type":"Feature","geometry":{"type":"Point","coordinates":[-3.55,54.2]},"properties":{"name":"West of Duddon Sands 1"}},{"type":"Feature","geometry":{"type":"Point","coordinates":[-3.55,54.2]},"properties":{"name":"West of Duddon Sands 2"}},{"type":"Feature","geometry":{"type":"Point","coordinates":[0.2,53.8]},"properties":{"name":"Westermost Rough"}},{"type":"Feature","geometry":{"type":"Point","coordinates":[-4.275,55.705]},"properties":{"name":"Whitelee 1"}},{"type":"Feature","geometry":{"type":"Point","coordinates":[-4.275,55.705]},"properties":{"name":"Whitelee 2"}},{"type":"Feature","geometry":{"type":"Point","coordinates":[-3.833,55.417]},"properties":{"name":"Whiteside Hill"}},{"type":"Feature","geometry":{"type":"Point","coordinates":[-2.75,55.533]},"properties":{"name":"Windy Rig"}},{"type":"Feature","geometry":{"type":"Point","coordinates":[-2.0,54.0]},"properties":{"name":"AG-REC06B"}},{"type":"Feature","geometry":{"type":"Point","coordinates":[-2.0,57.2]},"properties":{"name":"Aberdeen Bay"}},{"type":"Feature","geometry":{"type":"Point","coordinates":[-3.14,53.47]},"properties":{"name":"Burbo Bank Ext"}},{"type":"Feature","geometry":{"type":"Point","coordinates":[-4.5,57.65]},"properties":{"name":"Coire Na Cloiche"}},{"type":"Feature","geometry":{"type":"Point","coordinates":[-3.833,55.583]},"properties":{"name":"Cumberhead (Revised)"}},{"type":"Feature","geometry":{"type":"Point","coordinates":[1.15,53.27]},"properties":{"name":"Dudgeon 1"}},{"type":"Feature","geometry":{"type":"Point","coordinates":[1.15,53.27]},"properties":{"name":"Dudgeon 2"}},{"type":"Feature","geometry":{"type":"Point","coordinates":[1.15,53.27]},"properties":{"name":"Dudgeon 3"}},{"type":"Feature","geometry":{"type":"Point","coordinates":[1.15,53.27]},"properties":{"name":"Dudgeon 4"}},{"type":"Feature","geometry":{"type":"Point","coordinates":[2.1,52.0]},"properties":{"name":"Galloper 2"}},{"type":"Feature","geometry":{"type":"Point","coordinates":[2.1,52.0]},"properties":{"name":"Galloper 3"}},{"type":"Feature","geometry":{"type":"Point","coordinates":[2.1,52.0]},"properties":{"name":"Galloper 4"}},{"type":"Feature","geometry":{"type":"Point","coordinates":[-3.9,57.967]},"properties":{"name":"Gordonbush Ext"}},{"type":"Feature","geometry":{"type":"Point","coordinates":[-3.85,57.55]},"properties":{"name":"Hill of Glaschyle"}},{"type":"Feature","geometry":{"type":"Point","coordinates":[0.25,53.65]},"properties":{"name":"Humber Gateway 1 "}},{"type":"Feature","geometry":{"type":"Point","coordinates":[0.25,53.65]},"properties":{"name":"Humber Gateway 2"}},{"type":"Feature","geometry":{"type":"Point","coordinates":[-1.25,57.5]},"properties":{"name":"Hywind"}},{"type":"Feature","geometry":{"type":"Point","coordinates":[0.65,53.15]},"properties":{"name":"Lincs 1"}},{"type":"Feature","geometry":{"type":"Point","coordinates":[0.65,53.15]},"properties":{"name":"Lincs 2"}},{"type":"Feature","geometry":{"type":"Point","coordinates":[-3.5,54.75]},"properties":{"name":"Robin Rigg East"}}]}