{
"type": "FeatureCollection",
"name": "uk_cities",
"crs": { "type": "name", "properties": { "name": "urn:ogc:def:crs:OGC:1.3:CRS84" } },
"features": [
{"type":"Feature","properties":{"City":"London","Longitude":-0.1276,"Latitude":51.5072},"geometry":{"type":"Point","coordinates":[-0.1276,51.5072]}},
{"type":"Feature","properties":{"City":"Birmingham","Longitude":-1.8904,"Latitude":52.4862},"geometry":{"type":"Point","coordinates":[-1.8904,52.4862]}},
{"type":"Feature","properties":{"City":"Manchester","Longitude":-2.2426,"Latitude":53.4808},"geometry":{"type":"Point","coordinates":[-2.2426,53.4808]}},
{"type":"Feature","properties":{"City":"Leeds","Longitude":-1.5491,"Latitude":53.8008},"geometry":{"type":"Point","coordinates":[-1.5491,53.8008]}},
{"type":"Feature","properties":{"City":"Liverpool","Longitude":-2.9916,"Latitude":53.4084},"geometry":{"type":"Point","coordinates":[-2.9916,53.4084]}},
{"type":"Feature","properties":{"City":"Newcastle upon Tyne","Longitude":-1.6178,"Latitude":54.9783},"geometry":{"type":"Point","coordinates":[-1.6178,54.9783]}},
{"type":"Feature","properties":{"City":"Middlesbrough","Longitude":-1.234,"Latitude":54.5742},"geometry":{"type":"Point","coordinates":[-1.234,54.5742]}},
{"type":"Feature","properties":{"City":"Sheffield","Longitude":-1.4701,"Latitude":53.3811},"geometry":{"type":"Point","coordinates":[-1.4701,53.3811]}},
{"type":"Feature","properties":{"City":"Nottingham","Longitude":-1.1505,"Latitude":52.9548},"geometry":{"type":"Point","coordinates":[-1.1505,52.9548]}},
{"type":"Feature","properties":{"City":"Leicester","Longitude":-1.1339,"Latitude":52.6369},"geometry":{"type":"Point","coordinates":[-1.1339,52.6369]}},
{"type":"Feature","properties":{"City":"Bristol","Longitude":-2.5879,"Latitude":51.4545},"geometry":{"type":"Point","coordinates":[-2.5879,51.4545]}},
{"type":"Feature","properties":{"City":"Cardiff","Longitude":-3.1791,"Latitude":51.4816},"geometry":{"type":"Point","coordinates":[-3.1791,51.4816]}},
{"type":"Feature","properties":{"City":"Glasgow","Longitude":-4.2518,"Latitude":55.8642},"geometry":{"type":"Point","coordinates":[-4.2518,55.8642]}},
{"type":"Feature","properties":{"City":"Edinburgh","Longitude":-3.1883,"Latitude":55.9533},"geometry":{"type":"Point","coordinates":[-3.1883,55.9533]}},
{"type":"Feature","properties":{"City":"Aberdeen","Longitude":-2.0943,"Latitude":57.1497},"geometry":{"type":"Point","coordinates":[-2.0943,57.1497]}},
{"type":"Feature","properties":{"City":"Dundee","Longitude":-2.9707,"Latitude":56.462},"geometry":{"type":"Point","coordinates":[-2.9707,56.462]}},
{"type":"Feature","properties":{"City":"Southampton","Longitude":-1.4044,"Latitude":50.9097},"geometry":{"type":"Point","coordinates":[-1.4044,50.9097]}},
{"type":"Feature","properties":{"City":"Portsmouth","Longitude":-1.088,"Latitude":50.8058},"geometry":{"type":"Point","coordinates":[-1.088,50.8058]}},
{"type":"Feature","properties":{"City":"Plymouth","Longitude":-4.1427,"Latitude":50.3755},"geometry":{"type":"Point","coordinates":[-4.1427,50.3755]}},
{"type":"Feature","properties":{"City":"Exeter","Longitude":-3.5339,"Latitude":50.7184},"geometry":{"type":"Point","coordinates":[-3.5339,50.7184]}},
{"type":"Feature","properties":{"City":"Norwich","Longitude":1.2974,"Latitude":52.6309},"geometry":{"type":"Point","coordinates":[1.2974,52.6309]}},
{"type":"Feature","properties":{"City":"Cambridge","Longitude":0.1218,"Latitude":52.2053},"geometry":{"type":"Point","coordinates":[0.1218,52.2053]}},
{"type":"Feature","properties":{"City":"Oxford","Longitude":-1.2577,"Latitude":51.752},"geometry":{"type":"Point","coordinates":[-1.2577,51.752]}},
{"type":"Feature","properties":{"City":"Reading","Longitude":-0.9781,"Latitude":51.4543},"geometry":{"type":"Point","coordinates":[-0.9781,51.4543]}},
{"type":"Feature","properties":{"City":"Milton Keynes","Longitude":-0.7594,"Latitude":52.0406},"geometry":{"type":"Point","coordinates":[-0.7594,52.0406]}},
{"type":"Feature","properties":{"City":"Coventry","Longitude":-1.5106,"Latitude":52.4068},"geometry":{"type":"Point","coordinates":[-1.5106,52.4068]}},
{"type":"Feature","properties":{"City":"Derby","Longitude":-1.4756,"Latitude":52.9225},"geometry":{"type":"Point","coordinates":[-1.4756,52.9225]}},
{"type":"Feature","properties":{"City":"Hull","Longitude":-0.3367,"Latitude":53.7457},"geometry":{"type":"Point","coordinates":[-0.3367,53.7457]}},
{"type":"Feature","properties":{"City":"Grimsby","Longitude":-0.0815,"Latitude":53.5675},"geometry":{"type":"Point","coordinates":[-0.0815,53.5675]}},
{"type":"Feature","properties":{"City":"Scunthorpe","Longitude":-0.6544,"Latitude":53.589},"geometry":{"type":"Point","coordinates":[-0.6544,53.589]}},
{"type":"Feature","properties":{"City":"Immingham","Longitude":-0.186,"Latitude":53.612},"geometry":{"type":"Point","coordinates":[-0.186,53.612]}},
{"type":"Feature","properties":{"City":"Teesside","Longitude":-1.16,"Latitude":54.56},"geometry":{"type":"Point","coordinates":[-1.16,54.56]}},
{"type":"Feature","properties":{"City":"Redcar","Longitude":-1.073,"Latitude":54.617},"geometry":{"type":"Point","coordinates":[-1.073,54.617]}},
{"type":"Feature","properties":{"City":"Hartlepool","Longitude":-1.211,"Latitude":54.685},"geometry":{"type":"Point","coordinates":[-1.211,54.685]}},
{"type":"Feature","properties":{"City":"Runcorn","Longitude":-2.731,"Latitude":53.341},"geometry":{"type":"Point","coordinates":[-2.731,53.341]}},
{"type":"Feature","properties":{"City":"Ellesmere Port","Longitude":-2.896,"Latitude":53.278},"geometry":{"type":"Point","coordinates":[-2.896,53.278]}},
{"type":"Feature","properties":{"City":"Stanlow","Longitude":-2.9,"Latitude":53.28},"geometry":{"type":"Point","coordinates":[-2.9,53.28]}},
{"type":"Feature","properties":{"City":"Port Talbot","Longitude":-3.78,"Latitude":51.59},"geometry":{"type":"Point","coordinates":[-3.78,51.59]}},
{"type":"Feature","properties":{"City":"Swansea","Longitude":-3.9436,"Latitude":51.6214},"geometry":{"type":"Point","coordinates":[-3.9436,51.6214]}},
{"type":"Feature","properties":{"City":"Grangemouth","Longitude":-3.721,"Latitude":56.01},"geometry":{"type":"Point","coordinates":[-3.721,56.01]}},
{"type":"Feature","properties":{"City":"Fawley","Longitude":-1.366,"Latitude":50.84},"geometry":{"type":"Point","coordinates":[-1.366,50.84]}},
{"type":"Feature","properties":{"City":"Humberside","Longitude":-0.4,"Latitude":53.7},"geometry":{"type":"Point","coordinates":[-0.4,53.7]}}
]
}
